{"type": "FeatureCollection", "features": [ {"type": "Feature", "properties": {"norad_id": 43010, "name": "FENGYUN 3D", "group": "weather", "lat": -18.793931719601918, "lon": -51.735968165702296, "alt_km": 831.7279459173433, "timestamp": "2025-12-04T23:34:05.374266+00:00", "meta": {"OBJECT_NAME": "FENGYUN 3D", "OBJECT_ID": "2017-072A", "EPOCH": "2025-12-04T18:34:59.615904", "MEAN_MOTION": 14.19680329, "ECCENTRICITY": 6.55e-05, "INCLINATION": 98.9882, "RA_OF_ASC_NODE": 304.9657, "ARG_OF_PERICENTER": 212.9298, "MEAN_ANOMALY": 147.1836, "EPHEMERIS_TYPE": 0, "CLASSIFICATION_TYPE": "U", "NORAD_CAT_ID": 43010, "ELEMENT_SET_NO": 999, "REV_AT_EPOCH": 41740, "BSTAR": 0.00012673, "MEAN_MOTION_DOT": 2.22e-06, "MEAN_MOTION_DDOT": 0}, "tle": {"line1": "1 43010U 17072A   25338.77430111  .00000222  00000+0  12673-3 0  9997", "line2": "2 43010  98.9882 304.9657 0000655 212.9298 147.1836 14.19680329417406"}}, "geometry": {"type": "Point", "coordinates": [-51.735968165702296, -18.793931719601918]}}, {"type": "Feature", "properties": {"norad_id": 43013, "name": "NOAA 20 (JPSS-1)", "group": "weather", "lat": 41.333185950568726, "lon": 103.15717955947024, "alt_km": 822.4630385388245, "timestamp": "2025-12-04T23:34:05.374277+00:00", "meta": {"OBJECT_NAME": "NOAA 20 (JPSS-1)", "OBJECT_ID": "2017-073A", "EPOCH": "2025-12-04T16:09:13.834656", "MEAN_MOTION": 14.19522464, "ECCENTRICITY": 0.0002081, "INCLINATION": 98.7587, "RA_OF_ASC_NODE": 275.0585, "ARG_OF_PERICENTER": 98.6657, "MEAN_ANOMALY": 261.4755, "EPHEMERIS_TYPE": 0, "CLASSIFICATION_TYPE": "U", "NORAD_CAT_ID": 43013, "ELEMENT_SET_NO": 999, "REV_AT_EPOCH": 41687, "BSTAR": 0.0001113, "MEAN_MOTION_DOT": 1.91e-06, "MEAN_MOTION_DDOT": 0}, "tle": {"line1": "1 43013U 17073A   25338.67307679  .00000191  00000+0  11130-3 0  9994", "line2": "2 43013  98.7587 275.0585 0002081  98.6657 261.4755 14.19522464416875"}}, "geometry": {"type": "Point", "coordinates": [103.15717955947024, 41.333185950568726]}}, {"type": "Feature", "properties": {"norad_id": 43226, "name": "GOES 17", "group": "weather", "lat": -0.40291031511819525, "lon": -21.912300405982457, "alt_km": 35780.49933212293, "timestamp": "2025-12-04T23:34:05.374289+00:00", "meta": {"OBJECT_NAME": "GOES 17", "OBJECT_ID": "2018-022A", "EPOCH": "2025-12-04T13:17:59.563104", "MEAN_MOTION": 1.0027116, "ECCENTRICITY": 0.0003475, "INCLINATION": 0.4372, "RA_OF_ASC_NODE": 89.2939, "ARG_OF_PERICENTER": 182.3294, "MEAN_ANOMALY": 272.0015, "EPHEMERIS_TYPE": 0, "CLASSIFICATION_TYPE": "U", "NORAD_CAT_ID": 43226, "ELEMENT_SET_NO": 999, "REV_AT_EPOCH": 2847, "BSTAR": 0, "MEAN_MOTION_DOT": -1.68e-06, "MEAN_MOTION_DDOT": 0}, "tle": {"line1": "1 43226U 18022A   25338.55416161 -.00000168  00000+0  00000+0 0  9994", "line2": "2 43226   0.4372  89.2939 0003475 182.3294 272.0015  1.00271160 28479"}}, "geometry": {"type": "Point", "coordinates": [-21.912300405982457, -0.40291031511819525]}}, {"type": "Feature", "properties": {"norad_id": 43491, "name": "FENGYUN 2H", "group": "weather", "lat": 2.303059992810076, "lon": 146.85982701205765, "alt_km": 35787.70303516979, "timestamp": "2025-12-04T23:34:05.374308+00:00", "meta": {"OBJECT_NAME": "FENGYUN 2H", "OBJECT_ID": "2018-050A", "EPOCH": "2025-12-04T17:31:42.759264", "MEAN_MOTION": 1.00271307, "ECCENTRICITY": 0.0002941, "INCLINATION": 2.5288, "RA_OF_ASC_NODE": 81.4192, "ARG_OF_PERICENTER": 163.5881, "MEAN_ANOMALY": 171.0799, "EPHEMERIS_TYPE": 0, "CLASSIFICATION_TYPE": "U", "NORAD_CAT_ID": 43491, "ELEMENT_SET_NO": 999, "REV_AT_EPOCH": 2748, "BSTAR": 0, "MEAN_MOTION_DOT": -1.17e-06, "MEAN_MOTION_DDOT": 0}, "tle": {"line1": "1 43491U 18050A   25338.73035601 -.00000117  00000+0  00000+0 0  9999", "line2": "2 43491   2.5288  81.4192 0002941 163.5881 171.0799  1.00271307 27487"}}, "geometry": {"type": "Point", "coordinates": [146.85982701205765, 2.303059992810076]}}, {"type": "Feature", "properties": {"norad_id": 43689, "name": "METOP-C", "group": "weather", "lat": -43.322832092841956, "lon": -151.42718355588272, "alt_km": 828.0466695432751, "timestamp": "2025-12-04T23:34:05.374320+00:00", "meta": {"OBJECT_NAME": "METOP-C", "OBJECT_ID": "2018-087A", "EPOCH": "2025-12-04T15:45:39.991104", "MEAN_MOTION": 14.21507247, "ECCENTRICITY": 0.000166, "INCLINATION": 98.6941, "RA_OF_ASC_NODE": 36.5497, "ARG_OF_PERICENTER": 55.7257, "MEAN_ANOMALY": 304.4077, "EPHEMERIS_TYPE": 0, "CLASSIFICATION_TYPE": "U", "NORAD_CAT_ID": 43689, "ELEMENT_SET_NO": 999, "REV_AT_EPOCH": 36719, "BSTAR": 0.00015568, "MEAN_MOTION_DOT": 2.97e-06, "MEAN_MOTION_DDOT": 0}, "tle": {"line1": "1 43689U 18087A   25338.65671286  .00000297  00000+0  15568-3 0  9991", "line2": "2 43689  98.6941  36.5497 0001660  55.7257 304.4077 14.21507247367191"}}, "geometry": {"type": "Point", "coordinates": [-151.42718355588272, -43.322832092841956]}}, {"type": "Feature", "properties": {"norad_id": 43823, "name": "GEO-KOMPSAT-2A", "group": "weather", "lat": 0.03268545853535948, "lon": -164.19949898004054, "alt_km": 35784.85095769968, "timestamp": "2025-12-04T23:34:05.374332+00:00", "meta": {"OBJECT_NAME": "GEO-KOMPSAT-2A", "OBJECT_ID": "2018-100A", "EPOCH": "2025-12-04T12:37:25.948128", "MEAN_MOTION": 1.00269299, "ECCENTRICITY": 5.06e-05, "INCLINATION": 0.0604, "RA_OF_ASC_NODE": 120.8379, "ARG_OF_PERICENTER": 95.9371, "MEAN_ANOMALY": 174.4371, "EPHEMERIS_TYPE": 0, "CLASSIFICATION_TYPE": "U", "NORAD_CAT_ID": 43823, "ELEMENT_SET_NO": 999, "REV_AT_EPOCH": 2567, "BSTAR": 0, "MEAN_MOTION_DOT": -3.29e-06, "MEAN_MOTION_DDOT": 0}, "tle": {"line1": "1 43823U 18100A   25338.52599477 -.00000329  00000+0  00000+0 0  9992", "line2": "2 43823   0.0604 120.8379 0000506  95.9371 174.4371  1.00269299 25672"}}, "geometry": {"type": "Point", "coordinates": [-164.19949898004054, 0.03268545853535948]}}, {"type": "Feature", "properties": {"norad_id": 44387, "name": "METEOR-M2 2", "group": "weather", "lat": -39.58735603764229, "lon": 131.17445029608342, "alt_km": 816.9589090009131, "timestamp": "2025-12-04T23:34:05.374343+00:00", "meta": {"OBJECT_NAME": "METEOR-M2 2", "OBJECT_ID": "2019-038A", "EPOCH": "2025-12-04T19:09:57.932352", "MEAN_MOTION": 14.24286352, "ECCENTRICITY": 9.5e-05, "INCLINATION": 98.8964, "RA_OF_ASC_NODE": 318.4306, "ARG_OF_PERICENTER": 163.8996, "MEAN_ANOMALY": 196.2212, "EPHEMERIS_TYPE": 0, "CLASSIFICATION_TYPE": "U", "NORAD_CAT_ID": 44387, "ELEMENT_SET_NO": 999, "REV_AT_EPOCH": 33362, "BSTAR": 0.00016344, "MEAN_MOTION_DOT": 3.32e-06, "MEAN_MOTION_DDOT": 0}, "tle": {"line1": "1 44387U 19038A   25338.79858718  .00000332  00000+0  16344-3 0  9999", "line2": "2 44387  98.8964 318.4306 0000950 163.8996 196.2212 14.24286352333620"}}, "geometry": {"type": "Point", "coordinates": [131.17445029608342, -39.58735603764229]}}, {"type": "Feature", "properties": {"norad_id": 47719, "name": "ARKTIKA-M 1", "group": "weather", "lat": 49.509373411649634, "lon": -131.2250343096125, "alt_km": 26234.79332045432, "timestamp": "2025-12-04T23:34:05.374357+00:00", "meta": {"OBJECT_NAME": "ARKTIKA-M 1", "OBJECT_ID": "2021-016A", "EPOCH": "2025-12-01T02:41:41.634816", "MEAN_MOTION": 2.00613156, "ECCENTRICITY": 0.71974708, "INCLINATION": 63.1756, "RA_OF_ASC_NODE": 85.6045, "ARG_OF_PERICENTER": 269.084, "MEAN_ANOMALY": 15.7076, "EPHEMERIS_TYPE": 0, "CLASSIFICATION_TYPE": "U", "NORAD_CAT_ID": 47719, "ELEMENT_SET_NO": 999, "REV_AT_EPOCH": 3481, "BSTAR": 0, "MEAN_MOTION_DOT": -1.2e-07, "MEAN_MOTION_DDOT": 0}, "tle": {"line1": "1 47719U 21016A   25335.11228744 -.00000012  00000+0  00000+0 0  9997", "line2": "2 47719  63.1756  85.6045 7197470 269.0840  15.7076  2.00613156 34816"}}, "geometry": {"type": "Point", "coordinates": [-131.2250343096125, 49.509373411649634]}}, {"type": "Feature", "properties": {"norad_id": 49008, "name": "FENGYUN 3E", "group": "weather", "lat": -56.58763100294055, "lon": -6.907565959677133, "alt_km": 832.3093748672372, "timestamp": "2025-12-04T23:34:05.374370+00:00", "meta": {"OBJECT_NAME": "FENGYUN 3E", "OBJECT_ID": "2021-062A", "EPOCH": "2025-12-04T18:45:55.300320", "MEAN_MOTION": 14.19878421, "ECCENTRICITY": 7e-05, "INCLINATION": 98.7476, "RA_OF_ASC_NODE": 339.3975, "ARG_OF_PERICENTER": 317.4736, "MEAN_ANOMALY": 42.6386, "EPHEMERIS_TYPE": 0, "CLASSIFICATION_TYPE": "U", "NORAD_CAT_ID": 49008, "ELEMENT_SET_NO": 999, "REV_AT_EPOCH": 22899, "BSTAR": 5.5305e-05, "MEAN_MOTION_DOT": 7.3e-07, "MEAN_MOTION_DDOT": 0}, "tle": {"line1": "1 49008U 21062A   25338.78189005  .00000073  00000+0  55305-4 0  9992", "line2": "2 49008  98.7476 339.3975 0000700 317.4736  42.6386 14.19878421228995"}}, "geometry": {"type": "Point", "coordinates": [-6.907565959677133, -56.58763100294055]}}, {"type": "Feature", "properties": {"norad_id": 51850, "name": "GOES 18", "group": "weather", "lat": 0.0066405091769722825, "lon": -69.45488421264247, "alt_km": 35782.89121970469, "timestamp": "2025-12-04T23:34:05.374382+00:00", "meta": {"OBJECT_NAME": "GOES 18", "OBJECT_ID": "2022-021A", "EPOCH": "2025-12-04T13:54:38.819808", "MEAN_MOTION": 1.00270877, "ECCENTRICITY": 8.07e-05, "INCLINATION": 0.0021, "RA_OF_ASC_NODE": 110.208, "ARG_OF_PERICENTER": 180.9876, "MEAN_ANOMALY": 214.1126, "EPHEMERIS_TYPE": 0, "CLASSIFICATION_TYPE": "U", "NORAD_CAT_ID": 51850, "ELEMENT_SET_NO": 999, "REV_AT_EPOCH": 464, "BSTAR": 0, "MEAN_MOTION_DOT": 1.11e-06, "MEAN_MOTION_DDOT": 0}, "tle": {"line1": "1 51850U 22021A   25338.57961597  .00000111  00000+0  00000+0 0  9997", "line2": "2 51850   0.0021 110.2080 0000807 180.9876 214.1126  1.00270877  4643"}}, "geometry": {"type": "Point", "coordinates": [-69.45488421264247, 0.0066405091769722825]}}]}